API VERSION: 1.2
API SOURCE: NASA/JPL Horizons API



*******************************************************************************
Ephemeris / API_USER Wed Apr 15 12:08:30 2026 Pasadena, USA      / Horizons
*******************************************************************************
Target body name: Venus (299)                     {source: DE441}
Center body name: Sun (10)                        {source: DE441}
Center-site name: BODY CENTER
*******************************************************************************
Start time      : A.D. 2025-May-15 20:45:00.0000 TDB
Stop  time      : A.D. 2025-May-17 20:45:00.0000 TDB
Step-size       : 60 minutes
*******************************************************************************
Center geodetic : 0.0, 0.0, 0.0                   {E-lon(deg),Lat(deg),Alt(km)}
Center cylindric: 0.0, 0.0, 0.0                   {E-lon(deg),Dxy(km),Dz(km)}
Center radii    : 695700.0, 695700.0, 695700.0 km {Equator_a, b, pole_c}
Output units    : AU-D
Calendar mode   : Mixed Julian/Gregorian
Output type     : GEOMETRIC cartesian states
Output format   : 3 (position, velocity, LT, range, range-rate)
Reference frame : Ecliptic of J2000.0
*******************************************************************************
            JDTDB,            Calendar Date (TDB),                      X,                      Y,                      Z,                     VX,                     VY,                     VZ,                     LT,                     RG,                     RR,
**************************************************************************************************************************************************************************************************************************************************************************
$$SOE
2460812.614583333, A.D. 2025-May-17 02:45:00.0000,  5.013629693836522E-03, -7.269194941347260E-01, -1.027588221641417E-02,  2.009012164689201E-02,  6.482958722596410E-05, -1.158316038548601E-03,  4.198856170461412E-03,  7.270094092865088E-01,  9.009685161596044E-05,
2460812.656250000, A.D. 2025-May-17 03:45:00.0000,  5.850714555604299E-03, -7.269163069724991E-01, -1.032413850460398E-02,  2.008994724182711E-02,  8.815412243440046E-05, -1.157985537347287E-03,  4.198877837645811E-03,  7.270131608431928E-01,  8.997784940054920E-05,
2460812.697916667, A.D. 2025-May-17 04:45:00.0000,  6.687791590985097E-03, -7.269121479645061E-01, -1.037238098976182E-02,  2.008974598049713E-02,  1.114781788664878E-04, -1.157653493096850E-03,  4.198899476178442E-03,  7.270169074389765E-01,  8.985872845384674E-05,
2460812.739583333, A.D. 2025-May-17 05:45:00.0000,  7.524859680990562E-03, -7.269070171313361E-01, -1.042060960760417E-02,  2.008951786399740E-02,  1.348017258285859E-04, -1.157319906282228E-03,  4.198921086030752E-03,  7.270206490689168E-01,  8.973948893631998E-05,
2460812.781250000, A.D. 2025-May-17 06:45:00.0000,  8.361917706678748E-03, -7.269009144948561E-01, -1.046882429386760E-02,  2.008926289345749E-02,  1.581247326296193E-04, -1.156984777390301E-03,  4.198942667174228E-03,  7.270243857280766E-01,  8.962013100857665E-05,
2460812.822916667, A.D. 2025-May-17 07:45:00.0000,  9.198964549155395E-03, -7.268938400782120E-01, -1.051702498430911E-02,  2.008898107004113E-02,  1.814471685811090E-04, -1.156648106909883E-03,  4.198964219580392E-03,  7.270281174115251E-01,  8.950065483136533E-05,
2460812.864583333, A.D. 2025-May-17 08:45:00.0000,  1.003599908957550E-02, -7.268857939058290E-01, -1.056521161470594E-02,  2.008867239494630E-02,  2.047690029972133E-04, -1.156309895331730E-03,  4.198985743220810E-03,  7.270318441143392E-01,  8.938106056557476E-05,
2460812.906250000, A.D. 2025-May-17 09:45:00.0000,  1.087302020914470E-02, -7.268767760034098E-01, -1.061338412085611E-02,  2.008833686940513E-02,  2.280902051947612E-04, -1.155970143148529E-03,  4.199007238067081E-03,  7.270355658316012E-01,  8.926134837223672E-05,
2460812.947916667, A.D. 2025-May-17 10:45:00.0000,  1.171002678912065E-02, -7.268667863979362E-01, -1.066154243857794E-02,  2.008797449468397E-02,  2.514107444932903E-04, -1.155628850854907E-03,  4.199028704090847E-03,  7.270392825584010E-01,  8.914151841252086E-05,
2460812.989583333, A.D. 2025-May-17 11:45:00.0000,  1.254701771081447E-02, -7.268558251176683E-01, -1.070968650371046E-02,  2.008758527208333E-02,  2.747305902150845E-04, -1.155286018947423E-03,  4.199050141263787E-03,  7.270429942898354E-01,  8.902157084773596E-05,
2460813.031250000, A.D. 2025-May-17 12:45:00.0000,  1.338399185559224E-02, -7.268438921921442E-01, -1.075781625211362E-02,  2.008716920293791E-02,  2.980497116852065E-04, -1.154941647924571E-03,  4.199071549557620E-03,  7.270467010210073E-01,  8.890150583933474E-05,
2460813.072916667, A.D. 2025-May-17 13:45:00.0000,  1.422094810487629E-02, -7.268309876521797E-01, -1.080593161966788E-02,  2.008672628861657E-02,  3.213680782315380E-04, -1.154595738286776E-03,  4.199092928944102E-03,  7.270504027470265E-01,  8.878132354890510E-05,
2460813.114583333, A.D. 2025-May-17 14:45:00.0000,  1.505788534014674E-02, -7.268171115298691E-01, -1.085403254227483E-02,  2.008625653052235E-02,  3.446856591848135E-04, -1.154248290536397E-03,  4.199114279395028E-03,  7.270540994630096E-01,  8.866102413817824E-05,
2460813.156250000, A.D. 2025-May-17 15:45:00.0000,  1.589480244294290E-02, -7.268022638585845E-01, -1.090211895585691E-02,  2.008575993009243E-02,  3.680024238786589E-04, -1.153899305177724E-03,  4.199135600882236E-03,  7.270577911640803E-01,  8.854060776902195E-05,
2460813.197916667, A.D. 2025-May-17 16:45:00.0000,  1.673169829486466E-02, -7.267864446729753E-01, -1.095019079635766E-02,  2.008523648879816E-02,  3.913183416496259E-04, -1.153548782716977E-03,  4.199156893377597E-03,  7.270614778453682E-01,  8.842007460344492E-05,
2460813.239583333, A.D. 2025-May-17 17:45:00.0000,  1.756857177757386E-02, -7.267696540089689E-01, -1.099824799974174E-02,  2.008468620814502E-02,  4.146333818372289E-04, -1.153196723662306E-03,  4.199178156853025E-03,  7.270651595020104E-01,  8.829942480359247E-05,
2460813.281250000, A.D. 2025-May-17 18:45:00.0000,  1.840542177279591E-02, -7.267518919037701E-01, -1.104629050199506E-02,  2.008410908967265E-02,  4.379475137839822E-04, -1.152843128523788E-03,  4.199199391280471E-03,  7.270688361291511E-01,  8.817865853175145E-05,
2460813.322916667, A.D. 2025-May-17 19:45:00.0000,  1.924224716232096E-02, -7.267331583958605E-01, -1.109431823912465E-02,  2.008350513495480E-02,  4.612607068354337E-04, -1.152487997813430E-03,  4.199220596631928E-03,  7.270725077219394E-01,  8.805777595034547E-05,
2460813.364583333, A.D. 2025-May-17 20:45:00.0000,  2.007904682800548E-02, -7.267134535249997E-01, -1.114233114715924E-02,  2.008287434559936E-02,  4.845729303402052E-04, -1.152131332045164E-03,  4.199241772879424E-03,  7.270761742755336E-01,  8.793677722193531E-05,
